LEMUR-2-LEIA-PHILIP     
1 63246U 25052AN  26195.93616703  .00000193  00000+0  21592-4 0  9998
2 63246  97.6806  87.4167 0005096 119.8953 240.2776 14.97391318 72821
LEMUR-2-LIA-MARTIN      
1 63248U 25052AQ  26196.13122025  .00002106  00000+0  18314-3 0  9995
2 63248  97.6870  88.1270 0005305  90.0857 270.0973 14.98029975 72865
LEMUR-2-DELOITTE-1      
1 63259U 25052BB  26196.17847150  .00002285  00000+0  19960-3 0  9990
2 63259  97.6882  88.5037 0002560  64.7937 295.3551 14.97781793 72888
LEMUR-2-EMERSONROSE     
1 63261U 25052BD  26196.12592995  .00002686  00000+0  22486-3 0  9994
2 63261  97.6885  89.0649 0002726  60.8639 299.2857 14.99290579 72925
LEMUR-2-MARACHE-FRAN    
1 63262U 25052BE  26196.14868613  .00001680  00000+0  13870-3 0  9990
2 63262  97.6837  89.4551 0005171 252.5472 107.5186 15.00315109 72950
LEMUR-2-THEFALCONER     
1 63264U 25052BG  26196.14210683  .00000938  00000+0  85317-4 0  9991
2 63264  97.6831  88.0589 0000289 292.8068  67.3123 14.97563210 72873
LEMUR-2-UNTITLED-SC     
1 63351U 25061A   26195.92149000  .00001611  00000+0  92972-4 0  9991
2 63351  97.5652 171.0866 0019212 163.9754 196.2089 15.13645430 71783
LEMUR-2-ESPERANZA       
1 63352U 25061B   26195.89684498  .00001799  00000+0  10314-3 0  9999
2 63352  97.5659 171.1621 0018824 163.2431 196.9426 15.13751282 71789
LEMUR-2-KREMPEL-BRO2    
1 63353U 25061C   26195.98198419  .00001608  00000+0  91459-4 0  9992
2 63353  97.5705 171.8154 0019953 155.9783 204.2383 15.14178000 71813
LEMUR-2-THERMORAPTOR    
1 63354U 25061D   26196.16079721  .00001941  00000+0  10936-3 0  9998
2 63354  97.5711 172.0744 0019723 154.1868 206.0352 15.14261275 71845
LEMUR-2-NEUROSPICY      
1 63355U 25061E   26195.86601067  .00002019  00000+0  11332-3 0  9997
2 63355  97.5638 171.3860 0017457 158.0548 202.1435 15.14379540 71805
LEMUR-2-TILLINFINITY    
1 63356U 25061F   26195.89060975  .00002120  00000+0  11684-3 0  9991
2 63356  97.5623 171.7204 0019037 146.8297 213.4133 15.14963133 71838
LEMUR-2-KREMPEL-BRO1    
1 63357U 25061G   26195.86762064  .00002037  00000+0  11295-3 0  9992
2 63357  97.5623 171.6057 0019664 148.3273 211.9146 15.14770587 71826
LEMUR-2-LANGER2SPACE    
1 63358U 25061H   26195.89968102  .00001870  00000+0  10500-3 0  9999
2 63358  97.5630 171.4405 0017397 156.1893 204.0148 15.14463886 71811
LEMUR-2-BALTO           
1 63395U 25052BH  26196.13305052  .00002538  00000+0  20692-3 0  9992
2 63395  97.6929  89.4276 0005121 327.8612  32.2299 15.00363697 72954
LEMUR-2-KRISH           
1 64561U 25135AK  26195.29112395  .00001935  00000+0  17576-3 0  9999
2 64561  97.7772 309.9867 0001390  95.6584 264.4796 14.96445154 57974
